{"type": "FeatureCollection", "features": [ {"type": "Feature", "properties": {"norad_id": 33939, "name": "COSMOS 2251 DEB", "group": "cosmos-2251-debris", "lat": -52.51960622760019, "lon": -106.64336073117406, "alt_km": 573.3374981909519, "timestamp": "2025-12-27T02:10:16.582145+00:00", "meta": {"OBJECT_NAME": "COSMOS 2251 DEB", "OBJECT_ID": "1993-036EU", "EPOCH": "2025-12-26T12:19:36.424128", "MEAN_MOTION": 15.00846184, "ECCENTRICITY": 0.0005256, "INCLINATION": 74.0064, "RA_OF_ASC_NODE": 52.5661, "ARG_OF_PERICENTER": 11.3538, "MEAN_ANOMALY": 348.7767, "EPHEMERIS_TYPE": 0, "CLASSIFICATION_TYPE": "U", "NORAD_CAT_ID": 33939, "ELEMENT_SET_NO": 999, "REV_AT_EPOCH": 88959, "BSTAR": 0.0029211, "MEAN_MOTION_DOT": 0.0003732, "MEAN_MOTION_DDOT": 0}, "tle": {"line1": "1 33939U 93036EU  25360.51361602  .00037320  00000+0  29211-2 0  9999", "line2": "2 33939  74.0064  52.5661 0005256  11.3538 348.7767 15.00846184889592"}}, "geometry": {"type": "Point", "coordinates": [-106.64336073117406, -52.51960622760019]}}, {"type": "Feature", "properties": {"norad_id": 33940, "name": "COSMOS 2251 DEB", "group": "cosmos-2251-debris", "lat": 21.83759127112599, "lon": 122.75583122558481, "alt_km": 703.4917651791075, "timestamp": "2025-12-27T02:10:16.582155+00:00", "meta": {"OBJECT_NAME": "COSMOS 2251 DEB", "OBJECT_ID": "1993-036EV", "EPOCH": "2025-12-26T18:32:03.681312", "MEAN_MOTION": 14.58931988, "ECCENTRICITY": 0.0010588, "INCLINATION": 74.0399, "RA_OF_ASC_NODE": 116.7763, "ARG_OF_PERICENTER": 197.6819, "MEAN_ANOMALY": 314.6193, "EPHEMERIS_TYPE": 0, "CLASSIFICATION_TYPE": "U", "NORAD_CAT_ID": 33940, "ELEMENT_SET_NO": 999, "REV_AT_EPOCH": 88798, "BSTAR": 0.0012114, "MEAN_MOTION_DOT": 5.659e-05, "MEAN_MOTION_DDOT": 0}, "tle": {"line1": "1 33940U 93036EV  25360.77226483  .00005659  00000+0  12114-2 0  9990", "line2": "2 33940  74.0399 116.7763 0010588 197.6819 314.6193 14.58931988887980"}}, "geometry": {"type": "Point", "coordinates": [122.75583122558481, 21.83759127112599]}}, {"type": "Feature", "properties": {"norad_id": 33942, "name": "COSMOS 2251 DEB", "group": "cosmos-2251-debris", "lat": -41.13136663788312, "lon": 82.87722246998966, "alt_km": 775.3769312912036, "timestamp": "2025-12-27T02:10:16.582165+00:00", "meta": {"OBJECT_NAME": "COSMOS 2251 DEB", "OBJECT_ID": "1993-036EX", "EPOCH": "2025-12-26T17:05:25.114272", "MEAN_MOTION": 14.38006939, "ECCENTRICITY": 0.002086, "INCLINATION": 74.0358, "RA_OF_ASC_NODE": 249.0968, "ARG_OF_PERICENTER": 329.8877, "MEAN_ANOMALY": 95.4412, "EPHEMERIS_TYPE": 0, "CLASSIFICATION_TYPE": "U", "NORAD_CAT_ID": 33942, "ELEMENT_SET_NO": 999, "REV_AT_EPOCH": 88335, "BSTAR": 0.00019535, "MEAN_MOTION_DOT": 5.66e-06, "MEAN_MOTION_DDOT": 0}, "tle": {"line1": "1 33942U 93036EX  25360.71209623  .00000566  00000+0  19535-3 0  9990", "line2": "2 33942  74.0358 249.0968 0020860 329.8877  95.4412 14.38006939883353"}}, "geometry": {"type": "Point", "coordinates": [82.87722246998966, -41.13136663788312]}}, {"type": "Feature", "properties": {"norad_id": 33944, "name": "COSMOS 2251 DEB", "group": "cosmos-2251-debris", "lat": 61.16873415361354, "lon": -46.15356586975622, "alt_km": 705.6349857286041, "timestamp": "2025-12-27T02:10:16.582175+00:00", "meta": {"OBJECT_NAME": "COSMOS 2251 DEB", "OBJECT_ID": "1993-036EZ", "EPOCH": "2025-12-26T21:08:04.203744", "MEAN_MOTION": 14.37375814, "ECCENTRICITY": 0.0112813, "INCLINATION": 74.0407, "RA_OF_ASC_NODE": 282.9099, "ARG_OF_PERICENTER": 18.9334, "MEAN_ANOMALY": 40.3164, "EPHEMERIS_TYPE": 0, "CLASSIFICATION_TYPE": "U", "NORAD_CAT_ID": 33944, "ELEMENT_SET_NO": 999, "REV_AT_EPOCH": 88231, "BSTAR": 0.00039111, "MEAN_MOTION_DOT": 1.23e-05, "MEAN_MOTION_DDOT": 0}, "tle": {"line1": "1 33944U 93036EZ  25360.88060421  .00001230  00000+0  39111-3 0  9992", "line2": "2 33944  74.0407 282.9099 0112813  18.9334  40.3164 14.37375814882313"}}, "geometry": {"type": "Point", "coordinates": [-46.15356586975622, 61.16873415361354]}}, {"type": "Feature", "properties": {"norad_id": 33945, "name": "COSMOS 2251 DEB", "group": "cosmos-2251-debris", "lat": 68.72635271504036, "lon": -32.680708192228984, "alt_km": 764.6288852508678, "timestamp": "2025-12-27T02:10:16.582185+00:00", "meta": {"OBJECT_NAME": "COSMOS 2251 DEB", "OBJECT_ID": "1993-036FA", "EPOCH": "2025-12-26T20:47:59.510400", "MEAN_MOTION": 14.34611937, "ECCENTRICITY": 0.0022519, "INCLINATION": 74.0302, "RA_OF_ASC_NODE": 280.3819, "ARG_OF_PERICENTER": 3.0791, "MEAN_ANOMALY": 357.0495, "EPHEMERIS_TYPE": 0, "CLASSIFICATION_TYPE": "U", "NORAD_CAT_ID": 33945, "ELEMENT_SET_NO": 999, "REV_AT_EPOCH": 88218, "BSTAR": 0.00014116, "MEAN_MOTION_DOT": 3.74e-06, "MEAN_MOTION_DDOT": 0}, "tle": {"line1": "1 33945U 93036FA  25360.86666100  .00000374  00000+0  14116-3 0  9993", "line2": "2 33945  74.0302 280.3819 0022519   3.0791 357.0495 14.34611937882181"}}, "geometry": {"type": "Point", "coordinates": [-32.680708192228984, 68.72635271504036]}}, {"type": "Feature", "properties": {"norad_id": 33948, "name": "COSMOS 2251 DEB", "group": "cosmos-2251-debris", "lat": -21.554830486084644, "lon": -87.68827992832584, "alt_km": 761.6357544257489, "timestamp": "2025-12-27T02:10:16.582195+00:00", "meta": {"OBJECT_NAME": "COSMOS 2251 DEB", "OBJECT_ID": "1993-036FD", "EPOCH": "2025-12-26T19:35:08.224224", "MEAN_MOTION": 14.35645611, "ECCENTRICITY": 0.0023349, "INCLINATION": 74.036, "RA_OF_ASC_NODE": 279.3075, "ARG_OF_PERICENTER": 351.8748, "MEAN_ANOMALY": 8.2022, "EPHEMERIS_TYPE": 0, "CLASSIFICATION_TYPE": "U", "NORAD_CAT_ID": 33948, "ELEMENT_SET_NO": 999, "REV_AT_EPOCH": 88225, "BSTAR": 0.00020485, "MEAN_MOTION_DOT": 5.67e-06, "MEAN_MOTION_DDOT": 0}, "tle": {"line1": "1 33948U 93036FD  25360.81606741  .00000567  00000+0  20485-3 0  9996", "line2": "2 33948  74.0360 279.3075 0023349 351.8748   8.2022 14.35645611882254"}}, "geometry": {"type": "Point", "coordinates": [-87.68827992832584, -21.554830486084644]}}, {"type": "Feature", "properties": {"norad_id": 33971, "name": "COSMOS 2251 DEB", "group": "cosmos-2251-debris", "lat": -69.50921607273133, "lon": 97.2621303886936, "alt_km": 761.2335650857831, "timestamp": "2025-12-27T02:10:16.582205+00:00", "meta": {"OBJECT_NAME": "COSMOS 2251 DEB", "OBJECT_ID": "1993-036FE", "EPOCH": "2025-12-26T18:39:27.218304", "MEAN_MOTION": 14.39748312, "ECCENTRICITY": 0.0019053, "INCLINATION": 74.0236, "RA_OF_ASC_NODE": 227.7896, "ARG_OF_PERICENTER": 326.0887, "MEAN_ANOMALY": 109.072, "EPHEMERIS_TYPE": 0, "CLASSIFICATION_TYPE": "U", "NORAD_CAT_ID": 33971, "ELEMENT_SET_NO": 999, "REV_AT_EPOCH": 88341, "BSTAR": 0.00024457, "MEAN_MOTION_DOT": 7.41e-06, "MEAN_MOTION_DDOT": 0}, "tle": {"line1": "1 33971U 93036FE  25360.77739836  .00000741  00000+0  24457-3 0  9996", "line2": "2 33971  74.0236 227.7896 0019053 326.0887 109.0720 14.39748312883415"}}, "geometry": {"type": "Point", "coordinates": [97.2621303886936, -69.50921607273133]}}, {"type": "Feature", "properties": {"norad_id": 33972, "name": "COSMOS 2251 DEB", "group": "cosmos-2251-debris", "lat": 16.838693756650436, "lon": 169.217585258514, "alt_km": 711.9005008287013, "timestamp": "2025-12-27T02:10:16.582215+00:00", "meta": {"OBJECT_NAME": "COSMOS 2251 DEB", "OBJECT_ID": "1993-036FF", "EPOCH": "2025-12-26T17:49:27.081120", "MEAN_MOTION": 14.36334391, "ECCENTRICITY": 0.0124036, "INCLINATION": 73.9943, "RA_OF_ASC_NODE": 164.8742, "ARG_OF_PERICENTER": 329.4609, "MEAN_ANOMALY": 49.4605, "EPHEMERIS_TYPE": 0, "CLASSIFICATION_TYPE": "U", "NORAD_CAT_ID": 33972, "ELEMENT_SET_NO": 999, "REV_AT_EPOCH": 87275, "BSTAR": 0.0015035, "MEAN_MOTION_DOT": 4.777e-05, "MEAN_MOTION_DDOT": 0}, "tle": {"line1": "1 33972U 93036FF  25360.74267455  .00004777  00000+0  15035-2 0  9991", "line2": "2 33972  73.9943 164.8742 0124036 329.4609  49.4605 14.36334391872756"}}, "geometry": {"type": "Point", "coordinates": [169.217585258514, 16.838693756650436]}}, {"type": "Feature", "properties": {"norad_id": 33973, "name": "COSMOS 2251 DEB", "group": "cosmos-2251-debris", "lat": -54.644323309447955, "lon": -80.06091114068238, "alt_km": 714.6133031127956, "timestamp": "2025-12-27T02:10:16.582225+00:00", "meta": {"OBJECT_NAME": "COSMOS 2251 DEB", "OBJECT_ID": "1993-036FG", "EPOCH": "2025-12-26T15:48:39.068064", "MEAN_MOTION": 14.45405845, "ECCENTRICITY": 0.004737, "INCLINATION": 74.0087, "RA_OF_ASC_NODE": 76.9048, "ARG_OF_PERICENTER": 252.7865, "MEAN_ANOMALY": 259.9773, "EPHEMERIS_TYPE": 0, "CLASSIFICATION_TYPE": "U", "NORAD_CAT_ID": 33973, "ELEMENT_SET_NO": 999, "REV_AT_EPOCH": 88801, "BSTAR": 0.00015886, "MEAN_MOTION_DOT": 5.38e-06, "MEAN_MOTION_DDOT": 0}, "tle": {"line1": "1 33973U 93036FG  25360.65878551  .00000538  00000+0  15886-3 0  9993", "line2": "2 33973  74.0087  76.9048 0047370 252.7865 259.9773 14.45405845888010"}}, "geometry": {"type": "Point", "coordinates": [-80.06091114068238, -54.644323309447955]}}, {"type": "Feature", "properties": {"norad_id": 33975, "name": "COSMOS 2251 DEB", "group": "cosmos-2251-debris", "lat": 22.677765348930635, "lon": 66.20366320635786, "alt_km": 1025.6132386304062, "timestamp": "2025-12-27T02:10:16.582235+00:00", "meta": {"OBJECT_NAME": "COSMOS 2251 DEB", "OBJECT_ID": "1993-036FJ", "EPOCH": "2025-12-26T05:28:58.034208", "MEAN_MOTION": 14.00550507, "ECCENTRICITY": 0.0190782, "INCLINATION": 73.8014, "RA_OF_ASC_NODE": 60.7419, "ARG_OF_PERICENTER": 191.5414, "MEAN_ANOMALY": 168.1317, "EPHEMERIS_TYPE": 0, "CLASSIFICATION_TYPE": "U", "NORAD_CAT_ID": 33975, "ELEMENT_SET_NO": 999, "REV_AT_EPOCH": 86018, "BSTAR": 0.00049735, "MEAN_MOTION_DOT": 8.4e-06, "MEAN_MOTION_DDOT": 0}, "tle": {"line1": "1 33975U 93036FJ  25360.22844947  .00000840  00000+0  49735-3 0  9996", "line2": "2 33975  73.8014  60.7419 0190782 191.5414 168.1317 14.00550507860188"}}, "geometry": {"type": "Point", "coordinates": [66.20366320635786, 22.677765348930635]}}]}